FENGYUN 1C DEB          
1 32190U 99025CUL 17341.33115306  .00001452  00000-0  38836-3 0  9991
2 32190  98.9849 179.0407 0060837 223.2106 136.4303 14.48914821544625
